[{"OBJECT_NAME":"STARLINK-11659 [DTC]","OBJECT_ID":"2025-053B","EPOCH":"2026-03-08T12:00:15.019776","MEAN_MOTION":15.70901545,"ECCENTRICITY":0.00022863,"INCLINATION":43.0013,"RA_OF_ASC_NODE":119.2885,"ARG_OF_PERICENTER":279.2698,"MEAN_ANOMALY":80.7911,"EPHEMERIS_TYPE":0,"CLASSIFICATION_TYPE":"U","NORAD_CAT_ID":63266,"ELEMENT_SET_NO":999,"REV_AT_EPOCH":5748,"BSTAR":0.0018198492,"MEAN_MOTION_DOT":0.00240573,"MEAN_MOTION_DDOT":0},{"OBJECT_NAME":"FLOCK 4BE-10","OBJECT_ID":"2024-149AM","EPOCH":"2026-03-09T23:11:04.477920","MEAN_MOTION":15.73804605,"ECCENTRICITY":0.00059918,"INCLINATION":97.3736,"RA_OF_ASC_NODE":155.157,"ARG_OF_PERICENTER":229.3829,"MEAN_ANOMALY":130.6914,"EPHEMERIS_TYPE":0,"CLASSIFICATION_TYPE":"U","NORAD_CAT_ID":60503,"ELEMENT_SET_NO":999,"REV_AT_EPOCH":8723,"BSTAR":0.0018232079,"MEAN_MOTION_DOT":0.00264399,"MEAN_MOTION_DDOT":0}]
